[{"OBJECT_NAME":"STARLINK-2238","OBJECT_ID":"2021-041AH","EPOCH":"2026-03-10T00:00:02.999808","MEAN_MOTION":15.1912254,"ECCENTRICITY":8.931e-5,"INCLINATION":53.0542,"RA_OF_ASC_NODE":139.7754,"ARG_OF_PERICENTER":85.2454,"MEAN_ANOMALY":136.455,"EPHEMERIS_TYPE":0,"CLASSIFICATION_TYPE":"U","NORAD_CAT_ID":48584,"ELEMENT_SET_NO":999,"REV_AT_EPOCH":579,"BSTAR":0.0035639971,"MEAN_MOTION_DOT":0.00076253,"MEAN_MOTION_DDOT":0},{"OBJECT_NAME":"HAWK-12A","OBJECT_ID":"2025-138C","EPOCH":"2026-03-09T22:54:48.597696","MEAN_MOTION":15.17349329,"ECCENTRICITY":0.00159877,"INCLINATION":97.4429,"RA_OF_ASC_NODE":73.3872,"ARG_OF_PERICENTER":120.0729,"MEAN_ANOMALY":240.2092,"EPHEMERIS_TYPE":0,"CLASSIFICATION_TYPE":"U","NORAD_CAT_ID":64623,"ELEMENT_SET_NO":999,"REV_AT_EPOCH":3881,"BSTAR":0.00032645128,"MEAN_MOTION_DOT":6.47e-5,"MEAN_MOTION_DDOT":0}]
